OTTER                   
1 62623U 25009Q   26068.72300813  .00012198  00000+0  45151-3 0  9990
2 62623  97.4065 151.3812 0003573 310.7710  49.3219 15.27809545 63722
STARLINK-34115          
1 63972U 25099W   26068.33295859  .00028011  00000+0  10236-2 0  9993
2 63972  43.0002 174.6067 0001780 253.7711 106.2945 15.27578809 47326
